[{"OBJECT_NAME":"STARLINK-4655","OBJECT_ID":"2022-104AB","EPOCH":"2026-03-09T18:16:05.193408","MEAN_MOTION":15.08826646,"ECCENTRICITY":0.00012585,"INCLINATION":53.2181,"RA_OF_ASC_NODE":233.9544,"ARG_OF_PERICENTER":94.545,"MEAN_ANOMALY":265.5686,"EPHEMERIS_TYPE":0,"CLASSIFICATION_TYPE":"U","NORAD_CAT_ID":53613,"ELEMENT_SET_NO":999,"REV_AT_EPOCH":19564,"BSTAR":0.00015125177,"MEAN_MOTION_DOT":2.119e-5,"MEAN_MOTION_DDOT":0},{"OBJECT_NAME":"THOR ABLESTAR DEB","OBJECT_ID":"1961-015G","EPOCH":"2026-03-09T12:36:21.518784","MEAN_MOTION":14.9924172,"ECCENTRICITY":0.00458994,"INCLINATION":66.74,"RA_OF_ASC_NODE":114.2823,"ARG_OF_PERICENTER":282.1843,"MEAN_ANOMALY":77.4151,"EPHEMERIS_TYPE":0,"CLASSIFICATION_TYPE":"U","NORAD_CAT_ID":122,"ELEMENT_SET_NO":999,"REV_AT_EPOCH":37932,"BSTAR":0.00092278357,"MEAN_MOTION_DOT":0.00011411,"MEAN_MOTION_DDOT":0}]
